EYESAT-1 (AO-27)        
1 22825U 93061C   17264.54086724 -.00000002  00000-0  17084-4 0  9991
2 22825  98.8236 231.3602 0009343  54.4653 305.7398 14.30006690250900
CUTE-1 (CO-55)          
1 27844U 03031E   17264.61014539  .00000062  00000-0  47804-4 0  9996
2 27844  98.6906 272.2168 0010877  70.9402 289.2953 14.22060741737987
CUBESAT XI-IV (CO-57)   
1 27848U 03031J   17264.56573991  .00000039  00000-0  37702-4 0  9996
2 27848  98.6998 272.4721 0010825  79.7231 280.5167 14.21672431737861
CUBESAT XI 5            
1 28895U 05043F   17264.37602822  .00000154  00000-0  38333-4 0  9998
2 28895  97.8763  62.2984 0016508 194.9629 165.1088 14.63439003634325
CUTE-1.7+APD II (CO-65) 
1 32785U 08021C   17264.47687621  .00000234  00000-0  31144-4 0  9993
2 32785  97.5625 284.3325 0012466 203.1937 156.8719 14.87953702509144
COMPASS-1               
1 32787U 08021E   17264.01167916  .00000450  00000-0  48814-4 0  9997
2 32787  97.5535 293.3449 0012829 171.4536 188.6905 14.92715612509746
AAUSAT-II               
1 32788U 08021F   17264.61699386  .00000390  00000-0  41682-4 0  9994
2 32788  97.5516 296.9344 0012480 161.3134 198.8547 14.93999644509974
DELFI-C3 (DO-64)        
1 32789U 08021G   17264.62948663  .00001906  00000-0  13757-3 0  9996
2 32789  97.5507 320.7972 0014074 130.1380 230.1082 15.05207391511372
CANX-2                  
1 32790U 08021H   17264.27267647  .00000215  00000-0  29221-4 0  9991
2 32790  97.5609 282.4503 0013092 206.0813 153.9746 14.87673935509044
SEEDS II (CO-66)        
1 32791U 08021J   17264.25963967  .00000309  00000-0  37217-4 0  9996
2 32791  97.5581 288.7824 0013239 187.0209 173.0826 14.90314151509373
SWISSCUBE               
1 35932U 09051B   17264.61896674  .00000154  00000-0  45789-4 0  9991
2 35932  98.5098  44.9247 0006798 321.6352  38.4360 14.56053728424314
BEESAT                  
1 35933U 09051C   17264.39137948  .00000123  00000-0  38762-4 0  9998
2 35933  98.5135  46.0656 0005263 339.8036  20.2952 14.56168778424341
ITUPSAT 1               
1 35935U 09051E   17264.36407987  .00000094  00000-0  32753-4 0  9991
2 35935  98.5247  46.2921 0007452 330.0576  30.0194 14.55358445424199
TISAT 1                 
1 36799U 10035E   17264.28184238  .00000506  00000-0  57900-4 0  9995
2 36799  98.0734  29.0224 0012655  17.9256 342.2405 14.90503741389896
M-CUBED & EXP-1 PRIME   
1 37855U 11061F   17264.50939499  .00001124  00000-0  66342-4 0  9998
2 37855 101.7061 184.8480 0179801 156.8263 204.1185 15.03366846320790
HORYU 2                 
1 38340U 12025D   17264.59573111  .00000240  00000-0  43548-4 0  9994
2 38340  98.3785 271.9252 0011430 352.1977   7.9051 14.75398823277098
STRAND-1                
1 39090U 13009E   17264.52510880  .00000026  00000-0  24688-4 0  9993
2 39090  98.5456 109.0218 0009690  21.3401 338.8187 14.34983920239270
BRITE-AUSTRIA           
1 39091U 13009F   17264.81427018  .00000020  00000-0  22406-4 0  9996
2 39091  98.5420 108.6641 0011065  27.1283 333.0478 14.35041138239354
UNIBRITE                
1 39092U 13009G   17264.54314505  .00000004  00000-0  16745-4 0  9994
2 39092  98.5430 108.0776 0009861  22.3203 337.8409 14.34915434239285
AIST-2                  
1 39133U 13015D   17264.83053913  .00000208  00000-0  27335-4 0  9995
2 39133  64.8747 340.1226 0038238 265.8242  93.8507 15.04360232242835
SOMP                    
1 39134U 13015E   17264.20925121  .00001660  00000-0  89251-4 0  9994
2 39134  64.8638 276.4400 0039186 248.7299 110.9641 15.18154039243679
BEESAT-3                
1 39135U 13015F   17264.46383187  .00001376  00000-0  80899-4 0  9996
2 39135  64.8685 285.5937 0034305 268.4409  91.2787 15.15855812243517
BEESAT-2                
1 39136U 13015G   17264.47385632  .00001335  00000-0  79870-4 0  9997
2 39136  64.8691 287.6453 0034272 268.5845  91.1354 15.15362372243477
NEE-01 PEGASUS          
1 39151U 13018B   17264.79960540  .00000209  00000-0  34805-4 0  9997
2 39151  97.9830 355.7088 0018544  97.4633 262.8687 14.79767656237826
CUBEBUG-1 (CAPITAN BETO)
1 39153U 13018D   17264.82690602  .00000245  00000-0  39124-4 0  9991
2 39153  97.9855 356.6105 0018450  95.5903 264.7413 14.80236092237881
ESTCUBE 1               
1 39161U 13021C   17264.52583733  .00000224  00000-0  43630-4 0  9991
2 39161  98.0243 349.2622 0009453 185.7291 174.3807 14.71941916234923
POPACS 1                
1 39268U 13055D   17264.33763016  .00004438  00000-0  12856-3 0  9995
2 39268  81.0007 267.7958 0646315 297.5392  56.1546 14.31930149204471
POPACS 2                
1 39269U 13055E   17264.37275127  .00004651  00000-0  13763-3 0  9996
2 39269  81.0133 284.3820 0697769 340.8076  16.7947 14.20600898203733
POPACS 3                
1 39270U 13055F   17264.82228917  .00004152  00000-0  13125-3 0  9991
2 39270  81.0156 293.0500 0723671   7.0944 353.9819 14.13635770204420
FIREFLY                 
1 39404U 13064AA  17264.46123584  .00107654  00000-0  35566-3 0  9998
2 39404  40.4935  50.4818 0008694  22.6673 337.4542 15.89207621212909
ZACUBE-1 (TSHEPISOSAT)  
1 39417U 13066B   17264.59033607  .00000239  00000-0  36862-4 0  9996
2 39417  97.6209 302.1136 0058140 315.6551  44.0013 14.80770753207046
WNISAT-1                
1 39423U 13066H   17264.89729512  .00000155  00000-0  39925-4 0  9993
2 39423  97.6902 245.3063 0176461 135.3707 226.1839 14.52870796203274
TRITON-1                
1 39427U 13066M   17264.60437221  .00000253  00000-0  48388-4 0  9991
2 39427  97.6374 273.4987 0115266  40.5131 320.4584 14.67513260204993
GOMX 1                  
1 39430U 13066Q   17264.53622908  .00000229  00000-0  50055-4 0  9992
2 39430  97.6711 256.2573 0153326  98.6711 263.1892 14.58919783203791
BRITE-PL                
1 39431U 13066R   17264.45338765  .00000088  00000-0  28798-4 0  9991
2 39431  97.7174 233.7255 0202610 177.3553 182.8764 14.46867784202179
HUMSAT-D                
1 39433U 13066T   17264.72835115  .00000583  00000-0  63310-4 0  9993
2 39433  97.6432 324.9526 0029711 255.2465 104.5461 14.91548043208409
EAGLE 2                 
1 39436U 13066W   17264.60969370  .00033313  00000-0  77039-3 0  9993
2 39436  97.7133  15.5730 0008706 100.8442 259.3784 15.42385145210333
CUBEBUG-2 (LO-74)       
1 39440U 13066AA  17264.61155991  .00000256  00000-0  42926-4 0  9993
2 39440  97.6228 290.5649 0080334 348.6231  11.3161 14.75511657205110
NEE-02 KRYSAOR          
1 39441U 13066AB  17264.60595019  .00000172  00000-0  31778-4 0  9992
2 39441  97.6212 289.1277 0081858 352.5591   7.4397 14.74662418206197
FUNCUBE-1 (AO-73)       
1 39444U 13066AE  17264.58950597  .00000289  00000-0  42501-4 0  9993
2 39444  97.6224 303.2908 0057230 311.9880  47.6467 14.81516439205292
UWE-3                   
1 39446U 13066AG  17264.62028726  .00000243  00000-0  39257-4 0  9994
2 39446  97.6205 296.0442 0069629 332.4345  27.3180 14.78044064205444
BRITE-TORONTO           
1 40020U 14033L   17264.52066636  .00000090  00000-0  23832-4 0  9992
2 40020  97.8210 130.9022 0088222  21.3653 339.1198 14.66421772174099
DUCHIFAT-1              
1 40021U 14033M   17264.73787938  .00000456  00000-0  53170-4 0  9995
2 40021  97.9130 178.0212 0012927 350.1949   9.9014 14.89998645176977
FLOCK 1C-10             
1 40023U 14033P   17264.57691646  .00000773  00000-0  88374-4 0  9995
2 40023  97.9156 176.8075 0013650 356.4821   3.6310 14.88859150176844
NANOSATC-BR1            
1 40024U 14033Q   17264.24655175  .00000477  00000-0  56218-4 0  9990
2 40024  97.9084 176.2628 0012277 353.4022   6.7031 14.89308208176328
QB50P1                  
1 40025U 14033R   17264.74836245  .00000361  00000-0  44845-4 0  9990
2 40025  97.9062 175.6600 0012499 355.0333   5.0757 14.88497378176858
FLOCK 1C-7              
1 40026U 14033S   17264.41180680  .00001293  00000-0  14123-3 0  9990
2 40026  97.9190 177.4956 0012181 354.1338   5.9730 14.89600339176874
FLOCK 1C-1              
1 40027U 14033T   17264.74248915  .00001259  00000-0  13989-3 0  9994
2 40027  97.9180 177.2287 0013375 353.9308   6.1743 14.88926924176887
POPSAT-HIP-1            
1 40028U 14033U   17264.51950779  .00000370  00000-0  46045-4 0  9991
2 40028  97.9095 175.7342 0014069 353.7817   6.3248 14.88362308176817
FLOCK 1C-2              
1 40029U 14033V   17264.56867512  .00000824  00000-0  93679-4 0  9998
2 40029  97.9157 176.9036 0014713 349.6547  10.4354 14.88937007176852
FLOCK 1C-4              
1 40031U 14033X   17264.39315302  .00001187  00000-0  13271-3 0  9999
2 40031  97.9181 176.6939 0014734 348.2270  11.8594 14.88789442176817
QB50P2                  
1 40032U 14033Y   17264.21934626  .00000348  00000-0  43913-4 0  9992
2 40032  97.9030 174.1506 0011799 352.1004   8.0025 14.88051514176203
FLOCK 1C-11             
1 40033U 14033Z   17264.48929142  .00000817  00000-0  90019-4 0  9999
2 40033  97.9185 178.4295 0012107 342.2778  17.7961 14.90266810176935
ANTELSAT                
1 40034U 14033AA  17264.62896196  .00000270  00000-0  47996-4 0  9997
2 40034  97.8445 145.5020 0058804 344.1449  15.7917 14.73756321174596
FLOCK 1C-9              
1 40035U 14033AB  17264.48658092  .00001113  00000-0  12427-3 0  9990
2 40035  97.9187 177.2262 0012277 344.1971  15.8788 14.88998055176839
FLOCK 1C-6              
1 40036U 14033AC  17264.43354541  .00000800  00000-0  90811-4 0  9994
2 40036  97.9207 177.4089 0012077 345.0541  15.0255 14.89100348176846
PERSEUS-M2              
1 40037U 14033AD  17264.19964779  .00000148  00000-0  23075-4 0  9991
2 40037  97.9044 172.4425 0014376 357.1037   3.0093 14.86260437176573
FLOCK 1C-5              
1 40038U 14033AE  17264.24017560  .00000757  00000-0  86230-4 0  9993
2 40038  97.9188 177.0038 0014673 343.8821  16.1882 14.89078239176804
PERSEUS-M1              
1 40039U 14033AF  17264.62772399  .00000111  00000-0  19082-4 0  9999
2 40039  97.9049 172.3824 0014105 351.9051   8.1934 14.85884392176087
